     2.10           N: GPS NAV DATA     G:GPS               RINEX VERSION / TYPE
SthRinex220208      SouthGnss           07-Sep-22 07:44     PGM / RUN BY / DATE
     1.397e-08   2.235e-08  -1.192e-07  -1.192e-07          ION ALPHA 
     1.106e+05   1.638e+05  -6.554e+04  -5.243e+05          ION BETA 
    18                                                      LEAP SECONDS        
                                                            END OF HEADER       
24 22  6 19 12  0  0.0 2.172556705773E-04-8.640199666843E-12 0.000000000000E+00 
    8.800000000000E+01 2.381250000000E+01 5.383081369803E-09-5.606965284724E-01 
    1.499429345131E-06 1.254238886759E-02 8.117407560349E-06 5.153681133270E+03 
    4.320000000000E+04 6.146728992462E-08-1.114464257064E+00 1.713633537292E-07 
    9.339330957993E-01 2.119062500000E+02 8.181728051185E-01-8.554642049465E-09 
    3.918020344131E-10 0.000000000000E+00 2.215000000000E+03 0.000000000000E+00 
    0.000000000000E+00 0.000000000000E+00 2.793967723846E-09 8.800000000000E+01 
    4.320000000000E+04 0.000000000000E+00 0.000000000000E+00 0.000000000000E+00 
32 22  6 19 12  0  0.0-1.550419256091E-04-9.436007530894E-12 0.000000000000E+00 
    6.200000000000E+01-5.862500000000E+01 4.290178703163E-09 2.021762456899E+00 
   -2.965331077576E-06 6.024133530445E-03 1.022964715958E-05 5.153615533829E+03 
    4.320000000000E+04-1.061707735062E-07-2.089929553246E+00-1.043081283569E-07 
    9.581279848478E-01 1.784375000000E+02-2.281069945639E+00-7.897471818544E-09 
    2.010798043524E-10 0.000000000000E+00 2.215000000000E+03 0.000000000000E+00 
    0.000000000000E+00 0.000000000000E+00 4.656612873077E-10 6.200000000000E+01 
    4.320000000000E+04 0.000000000000E+00 0.000000000000E+00 0.000000000000E+00 
15 22  6 19 14  0  0.0-5.200225859880E-05 3.069544618484E-12 0.000000000000E+00 
    3.100000000000E+01-9.500000000000E+01 4.975921552820E-09 1.401612353980E+00 
   -4.950910806656E-06 1.413133554161E-02 1.004524528980E-05 5.153581541061E+03 
    5.040000000000E+04-2.291053533554E-07-2.211063561889E+00-1.285225152969E-07 
    9.303694931895E-01 1.761562500000E+02 1.095944090150E+00-8.437851470382E-09 
   -4.107313943255E-11 0.000000000000E+00 2.215000000000E+03 0.000000000000E+00 
    0.000000000000E+00 0.000000000000E+00-1.071020960808E-08 3.100000000000E+01 
    5.040000000000E+04 0.000000000000E+00 0.000000000000E+00 0.000000000000E+00 
13 22  6 19 14  0  0.0 3.328518941998E-04 7.048583938740E-12 0.000000000000E+00 
    9.200000000000E+01-6.059375000000E+01 4.040882604694E-09 1.948989332257E+00 
   -3.091990947723E-06 6.006771349348E-03 1.114606857300E-05 5.153683036804E+03 
    5.040000000000E+04-8.009374141693E-08-1.946854545643E+00-8.381903171539E-08 
    9.685305787976E-01 1.679375000000E+02 9.154128191669E-01-7.813182593274E-09 
    2.175090601254E-10 0.000000000000E+00 2.215000000000E+03 0.000000000000E+00 
    0.000000000000E+00 0.000000000000E+00-1.164153218269E-08 9.200000000000E+01 
    5.040000000000E+04 0.000000000000E+00 0.000000000000E+00 0.000000000000E+00 
18 22  6 19 14  0  0.0 1.376792788506E-04-1.091393642128E-11 0.000000000000E+00 
    1.350000000000E+02 4.559375000000E+01 4.407326439980E-09 5.409790157760E-01 
    2.186745405197E-06 2.429920714349E-03 5.159527063370E-06 5.153731996536E+03 
    5.040000000000E+04-4.470348358154E-08 2.126624626703E+00-2.607703208923E-08 
    9.716977701067E-01 2.814687500000E+02 3.002485161742E+00-8.199627261674E-09 
    3.571577341961E-12 0.000000000000E+00 2.215000000000E+03 0.000000000000E+00 
    0.000000000000E+00 0.000000000000E+00-8.381903171539E-09 1.350000000000E+02 
    5.040000000000E+04 0.000000000000E+00 0.000000000000E+00 0.000000000000E+00 
23 22  6 19 14  0  0.0-2.885004505515E-05-2.046363078989E-12 0.000000000000E+00 
    1.560000000000E+02-6.262500000000E+01 4.390897184207E-09-5.666344076261E-01 
   -3.365799784660E-06 2.266903524287E-03 4.533678293228E-06 5.153712471008E+03 
    5.040000000000E+04 1.322478055954E-07 3.126061216609E+00-9.499490261078E-08 
    9.693956871071E-01 3.019062500000E+02 2.996327417704E+00-8.172126116141E-09 
   -2.214377952016E-10 0.000000000000E+00 2.215000000000E+03 0.000000000000E+00 
    0.000000000000E+00 0.000000000000E+00-8.381903171539E-09 4.120000000000E+02 
    5.040000000000E+04 0.000000000000E+00 0.000000000000E+00 0.000000000000E+00 
27 22  6 19 14  0  0.0 2.167182974517E-04 2.955857780762E-12 0.000000000000E+00 
    7.800000000000E+01 4.268750000000E+01 4.176959701423E-09 2.397565215141E+00 
    2.101063728333E-06 1.052961184178E-02 9.376555681229E-06 5.153662332535E+03 
    5.040000000000E+04-1.415610313416E-07 1.058036779867E+00-1.396983861923E-07 
    9.719971987163E-01 2.053750000000E+02 6.880340514714E-01-7.720321582383E-09 
   -1.710785546799E-10 0.000000000000E+00 2.215000000000E+03 0.000000000000E+00 
    0.000000000000E+00 0.000000000000E+00 1.862645149231E-09 7.800000000000E+01 
    5.040000000000E+04 0.000000000000E+00 0.000000000000E+00 0.000000000000E+00 
10 22  6 19 14  0  0.0-4.609646275640E-04-1.455191522837E-11 0.000000000000E+00 
    9.200000000000E+01-6.940625000000E+01 4.166602127132E-09-1.842405964724E+00 
   -3.580003976822E-06 7.658656919375E-03 4.623085260391E-06 5.153683465958E+03 
    5.040000000000E+04 4.470348358154E-08-3.131648827824E+00-1.601874828339E-07 
    9.743135597963E-01 2.990625000000E+02-2.500061185172E+00-7.968546207649E-09 
   -1.014327965117E-10 0.000000000000E+00 2.215000000000E+03 0.000000000000E+00 
    0.000000000000E+00 0.000000000000E+00 2.328306436539E-09 9.200000000000E+01 
    5.040000000000E+04 0.000000000000E+00 0.000000000000E+00 0.000000000000E+00 
32 22  6 19 14  0  0.0-1.551099121571E-04-9.436007530894E-12 0.000000000000E+00 
    6.300000000000E+01-6.309375000000E+01 4.188031591183E-09 3.071908714540E+00 
   -3.209337592125E-06 6.024232134223E-03 1.010298728943E-05 5.153615800858E+03 
    5.040000000000E+04 1.676380634308E-08-2.089985662006E+00-2.607703208923E-08 
    9.581299641760E-01 1.824062500000E+02-2.281002512430E+00-7.760323248613E-09 
    1.785788670980E-10 0.000000000000E+00 2.215000000000E+03 0.000000000000E+00 
    0.000000000000E+00 0.000000000000E+00 4.656612873077E-10 6.300000000000E+01 
    5.040000000000E+04 0.000000000000E+00 0.000000000000E+00 0.000000000000E+00 
24 22  6 19 14  0  0.0 2.171932719648E-04-8.640199666843E-12 0.000000000000E+00 
    8.900000000000E+01 2.306250000000E+01 5.291648989849E-09 4.894542525114E-01 
    1.154839992523E-06 1.254231133498E-02 8.417293429375E-06 5.153680971146E+03 
    5.040000000000E+04-8.009374141693E-08-1.114525537239E+00 1.527369022369E-07 
    9.339358651032E-01 2.060000000000E+02 8.182047245281E-01-8.522855011121E-09 
    3.282279577262E-10 0.000000000000E+00 2.215000000000E+03 0.000000000000E+00 
    0.000000000000E+00 0.000000000000E+00 2.793967723846E-09 8.900000000000E+01 
    5.040000000000E+04 0.000000000000E+00 0.000000000000E+00 0.000000000000E+00 
 8 22  6 19 14  0  0.0-7.280288264155E-05-1.591615728103E-12 0.000000000000E+00 
    4.100000000000E+01 4.537500000000E+01 4.475186409477E-09 2.337302575314E+00 
    2.406537532806E-06 7.443599752150E-03 9.624287486076E-06 5.153781263351E+03 
    5.040000000000E+04-1.750886440277E-07 1.037581883313E+00 1.210719347000E-07 
    9.632550694515E-01 1.972812500000E+02 1.726232639604E-01-7.919615598064E-09 
   -1.885792836555E-10 0.000000000000E+00 2.215000000000E+03 0.000000000000E+00 
    0.000000000000E+00 0.000000000000E+00 5.122274160385E-09 4.100000000000E+01 
    5.040000000000E+04 0.000000000000E+00 0.000000000000E+00 0.000000000000E+00 
22 22  6 19 14  0  0.0 2.784021198750E-04 6.366462912410E-12 0.000000000000E+00 
    7.200000000000E+01-5.425000000000E+01 4.101242261774E-09 2.233054984709E+00 
   -2.838671207428E-06 1.341935258824E-02 1.012906432152E-05 5.153710109711E+03 
    5.040000000000E+04 1.620501279831E-07-1.999373758194E+00-2.123415470123E-07 
    9.612942691477E-01 1.819687500000E+02-1.847869953509E+00-7.649604351012E-09 
    2.060800126311E-10 0.000000000000E+00 2.215000000000E+03 0.000000000000E+00 
    0.000000000000E+00 0.000000000000E+00-8.381903171539E-09 7.200000000000E+01 
    5.040000000000E+04 0.000000000000E+00 0.000000000000E+00 0.000000000000E+00 
21 22  6 19 14  0  0.0 1.613097265363E-04 0.000000000000E+00 0.000000000000E+00 
    1.180000000000E+02 7.390625000000E+01 4.605906140193E-09 2.494562270680E+00 
    4.081055521965E-06 2.424817928113E-02 4.665926098824E-06 5.153743518829E+03 
    5.040000000000E+04 3.986060619354E-07 2.026345275997E+00 2.514570951462E-07 
    9.602246741491E-01 2.830625000000E+02-9.351474509306E-01-8.008547873879E-09 
   -1.096474243982E-10 0.000000000000E+00 2.215000000000E+03 0.000000000000E+00 
    0.000000000000E+00 0.000000000000E+00-1.024454832077E-08 1.180000000000E+02 
    5.040000000000E+04 0.000000000000E+00 0.000000000000E+00 0.000000000000E+00 
 8 22  6 19 16  0  0.0-7.281405851245E-05-1.591615728103E-12 0.000000000000E+00 
    5.600000000000E+01 3.846875000000E+01 4.409112228651E-09-2.895846194543E+00 
    2.000480890274E-06 7.443037931807E-03 9.488314390182E-06 5.153782564163E+03 
    5.760000000000E+04-1.545995473862E-07 1.037525035779E+00-2.980232238770E-08 
    9.632541361098E-01 2.010312500000E+02 1.727004943316E-01-7.858541625516E-09 
   -1.514348792991E-10 0.000000000000E+00 2.215000000000E+03 0.000000000000E+00 
    0.000000000000E+00 0.000000000000E+00 5.122274160385E-09 5.600000000000E+01 
    5.760000000000E+04 0.000000000000E+00 0.000000000000E+00 0.000000000000E+00 
